HULIANWANG DIGUI-129    
1 67237U 25311B   26061.45721908 -.00000071  00000+0  10755-3 0  9997
2 67237  50.0076 138.5142 0000936 290.8870  69.1905 13.36653522  9141
HULIANWANG DIGUI-130    
1 67238U 25311C   26061.72684534 -.00000064  00000+0  12257-3 0  9992
2 67238  50.0046 137.9149 0001025 276.3075  83.7683 13.35083039  9172
HULIANWANG DIGUI-131    
1 67239U 25311D   26061.65984880 -.00000067  00000+0  11669-3 0  9991
2 67239  50.0042 138.2243 0000424 273.4610  86.6216 13.34957143  9161
HULIANWANG DIGUI-132    
1 67240U 25311E   26061.63665635 -.00000067  00000+0  11511-3 0  9991
2 67240  50.0051 138.1112 0000531 255.5631 104.5185 13.35491970  9167
HULIANWANG DIGUI-133    
1 67241U 25311F   26061.77128593 -.00000062  00000+0  12494-3 0  9990
2 67241  50.0097 137.5221 0000558 259.1437 100.9375 13.35862255  9186
HULIANWANG DIGUI-134    
1 67242U 25311G   26061.77900082 -.00000065  00000+0  12035-3 0  9996
2 67242  50.0020 137.5174 0000368  87.0028 273.0889 13.35702804  9188
HULIANWANG DIGUI-135    
1 67243U 25311H   26061.94375294 -.00000065  00000+0  12030-3 0  9992
2 67243  50.0012 137.0410 0000790 252.5322 107.5467 13.35301462  9204
HULIANWANG DIGUI-136    
1 67244U 25311J   26061.76371513 -.00000067  00000+0  11564-3 0  9996
2 67244  50.0084 137.4741 0000636 287.2300  72.8505 13.36030172  9187
HULIANWANG DIGUI-137    
1 67435U 26007A   26059.69668808 -.00000046  00000+0  13714-3 0  9992
2 67435  50.0071 115.7615 0001169  59.0000 301.0995 13.47627034  6344
HULIANWANG DIGUI-138    
1 67436U 26007B   26059.48646786 -.00000048  00000+0  13415-3 0  9991
2 67436  50.0113 116.6543 0004856 173.7650 186.3291 13.47462673  6319
HULIANWANG DIGUI-139    
1 67437U 26007C   26060.07379646 -.00000028  00000+0  16707-3 0  9992
2 67437  50.0014 114.3987 0000754  62.4317 297.6639 13.47209372  6399
HULIANWANG DIGUI-140    
1 67438U 26007D   26059.49299633 -.00000035  00000+0  15632-3 0  9998
2 67438  50.0110 116.6876 0004608 178.5616 181.5278 13.47190736  6317
HULIANWANG DIGUI-141    
1 67439U 26007E   26060.06110031 -.00000040  00000+0  14638-3 0  9999
2 67439  50.0040 114.3424 0000443  73.1709 286.9220 13.47595026  6396
HULIANWANG DIGUI-142    
1 67440U 26007F   26059.61011250 -.00000123  00000+0  12098-4 0  9994
2 67440  50.0035 115.9923 0001971 209.6639 150.4130 13.47919319  6332
HULIANWANG DIGUI-143    
1 67441U 26007G   26059.60369912 -.00000044  00000+0  13990-3 0  9998
2 67441  50.0035 115.9473 0002654 224.4086 135.6581 13.48012339  6335
HULIANWANG DIGUI-144    
1 67442U 26007H   26059.67173005 -.00000052  00000+0  12739-3 0  9991
2 67442  50.0296 115.5876 0002073 237.4762 122.5918 13.48237741  6344
