[{"OBJECT_NAME":"HULIANWANG DIGUI-129","OBJECT_ID":"2025-311B","EPOCH":"2026-03-02T10:58:23.728512","MEAN_MOTION":13.36653522,"ECCENTRICITY":9.366e-5,"INCLINATION":50.0076,"RA_OF_ASC_NODE":138.5142,"ARG_OF_PERICENTER":290.887,"MEAN_ANOMALY":69.1905,"EPHEMERIS_TYPE":0,"CLASSIFICATION_TYPE":"U","NORAD_CAT_ID":67237,"ELEMENT_SET_NO":999,"REV_AT_EPOCH":914,"BSTAR":0.00010755102,"MEAN_MOTION_DOT":-7.1e-7,"MEAN_MOTION_DDOT":0},{"OBJECT_NAME":"HULIANWANG DIGUI-130","OBJECT_ID":"2025-311C","EPOCH":"2026-03-02T17:26:39.437376","MEAN_MOTION":13.35083039,"ECCENTRICITY":0.00010251,"INCLINATION":50.0046,"RA_OF_ASC_NODE":137.9149,"ARG_OF_PERICENTER":276.3075,"MEAN_ANOMALY":83.7683,"EPHEMERIS_TYPE":0,"CLASSIFICATION_TYPE":"U","NORAD_CAT_ID":67238,"ELEMENT_SET_NO":999,"REV_AT_EPOCH":917,"BSTAR":0.00012256711,"MEAN_MOTION_DOT":-6.4e-7,"MEAN_MOTION_DDOT":0},{"OBJECT_NAME":"HULIANWANG DIGUI-131","OBJECT_ID":"2025-311D","EPOCH":"2026-03-02T15:50:10.936320","MEAN_MOTION":13.34957143,"ECCENTRICITY":4.248e-5,"INCLINATION":50.0042,"RA_OF_ASC_NODE":138.2243,"ARG_OF_PERICENTER":273.461,"MEAN_ANOMALY":86.6216,"EPHEMERIS_TYPE":0,"CLASSIFICATION_TYPE":"U","NORAD_CAT_ID":67239,"ELEMENT_SET_NO":999,"REV_AT_EPOCH":916,"BSTAR":0.00011669452,"MEAN_MOTION_DOT":-6.7e-7,"MEAN_MOTION_DDOT":0},{"OBJECT_NAME":"HULIANWANG DIGUI-132","OBJECT_ID":"2025-311E","EPOCH":"2026-03-02T15:16:47.108640","MEAN_MOTION":13.3549197,"ECCENTRICITY":5.317e-5,"INCLINATION":50.0051,"RA_OF_ASC_NODE":138.1112,"ARG_OF_PERICENTER":255.5631,"MEAN_ANOMALY":104.5185,"EPHEMERIS_TYPE":0,"CLASSIFICATION_TYPE":"U","NORAD_CAT_ID":67240,"ELEMENT_SET_NO":999,"REV_AT_EPOCH":916,"BSTAR":0.00011510574,"MEAN_MOTION_DOT":-6.7e-7,"MEAN_MOTION_DDOT":0},{"OBJECT_NAME":"HULIANWANG DIGUI-133","OBJECT_ID":"2025-311F","EPOCH":"2026-03-02T18:30:39.104352","MEAN_MOTION":13.35862255,"ECCENTRICITY":5.584e-5,"INCLINATION":50.0097,"RA_OF_ASC_NODE":137.5221,"ARG_OF_PERICENTER":259.1437,"MEAN_ANOMALY":100.9375,"EPHEMERIS_TYPE":0,"CLASSIFICATION_TYPE":"U","NORAD_CAT_ID":67241,"ELEMENT_SET_NO":999,"REV_AT_EPOCH":918,"BSTAR":0.00012494473,"MEAN_MOTION_DOT":-6.2e-7,"MEAN_MOTION_DDOT":0},{"OBJECT_NAME":"HULIANWANG DIGUI-134","OBJECT_ID":"2025-311G","EPOCH":"2026-03-02T18:41:45.670848","MEAN_MOTION":13.35702804,"ECCENTRICITY":3.687e-5,"INCLINATION":50.002,"RA_OF_ASC_NODE":137.5174,"ARG_OF_PERICENTER":87.0028,"MEAN_ANOMALY":273.0889,"EPHEMERIS_TYPE":0,"CLASSIFICATION_TYPE":"U","NORAD_CAT_ID":67242,"ELEMENT_SET_NO":999,"REV_AT_EPOCH":918,"BSTAR":0.00012034597,"MEAN_MOTION_DOT":-6.5e-7,"MEAN_MOTION_DDOT":0},{"OBJECT_NAME":"HULIANWANG DIGUI-135","OBJECT_ID":"2025-311H","EPOCH":"2026-03-02T22:39:00.254016","MEAN_MOTION":13.35301462,"ECCENTRICITY":7.906e-5,"INCLINATION":50.0012,"RA_OF_ASC_NODE":137.041,"ARG_OF_PERICENTER":252.5322,"MEAN_ANOMALY":107.5467,"EPHEMERIS_TYPE":0,"CLASSIFICATION_TYPE":"U","NORAD_CAT_ID":67243,"ELEMENT_SET_NO":999,"REV_AT_EPOCH":920,"BSTAR":0.00012030254,"MEAN_MOTION_DOT":-6.5e-7,"MEAN_MOTION_DDOT":0},{"OBJECT_NAME":"HULIANWANG DIGUI-136","OBJECT_ID":"2025-311J","EPOCH":"2026-03-02T18:19:44.987232","MEAN_MOTION":13.36030172,"ECCENTRICITY":6.365e-5,"INCLINATION":50.0084,"RA_OF_ASC_NODE":137.4741,"ARG_OF_PERICENTER":287.23,"MEAN_ANOMALY":72.8505,"EPHEMERIS_TYPE":0,"CLASSIFICATION_TYPE":"U","NORAD_CAT_ID":67244,"ELEMENT_SET_NO":999,"REV_AT_EPOCH":918,"BSTAR":0.00011564143,"MEAN_MOTION_DOT":-6.7e-7,"MEAN_MOTION_DDOT":0},{"OBJECT_NAME":"HULIANWANG DIGUI-137","OBJECT_ID":"2026-007A","EPOCH":"2026-02-28T16:43:13.850112","MEAN_MOTION":13.47627034,"ECCENTRICITY":0.0001169,"INCLINATION":50.0071,"RA_OF_ASC_NODE":115.7615,"ARG_OF_PERICENTER":59,"MEAN_ANOMALY":301.0995,"EPHEMERIS_TYPE":0,"CLASSIFICATION_TYPE":"U","NORAD_CAT_ID":67435,"ELEMENT_SET_NO":999,"REV_AT_EPOCH":634,"BSTAR":0.00013714,"MEAN_MOTION_DOT":-4.6e-7,"MEAN_MOTION_DDOT":0},{"OBJECT_NAME":"HULIANWANG DIGUI-138","OBJECT_ID":"2026-007B","EPOCH":"2026-02-28T11:40:30.823104","MEAN_MOTION":13.47462673,"ECCENTRICITY":0.0004856,"INCLINATION":50.0113,"RA_OF_ASC_NODE":116.6543,"ARG_OF_PERICENTER":173.765,"MEAN_ANOMALY":186.3291,"EPHEMERIS_TYPE":0,"CLASSIFICATION_TYPE":"U","NORAD_CAT_ID":67436,"ELEMENT_SET_NO":999,"REV_AT_EPOCH":631,"BSTAR":0.00013415,"MEAN_MOTION_DOT":-4.8e-7,"MEAN_MOTION_DDOT":0},{"OBJECT_NAME":"HULIANWANG DIGUI-139","OBJECT_ID":"2026-007C","EPOCH":"2026-03-01T01:46:16.014144","MEAN_MOTION":13.47209372,"ECCENTRICITY":7.545e-5,"INCLINATION":50.0014,"RA_OF_ASC_NODE":114.3987,"ARG_OF_PERICENTER":62.4317,"MEAN_ANOMALY":297.6639,"EPHEMERIS_TYPE":0,"CLASSIFICATION_TYPE":"U","NORAD_CAT_ID":67437,"ELEMENT_SET_NO":999,"REV_AT_EPOCH":639,"BSTAR":0.00016706521,"MEAN_MOTION_DOT":-2.8e-7,"MEAN_MOTION_DDOT":0},{"OBJECT_NAME":"HULIANWANG DIGUI-140","OBJECT_ID":"2026-007D","EPOCH":"2026-02-28T11:49:54.882912","MEAN_MOTION":13.47190736,"ECCENTRICITY":0.0004608,"INCLINATION":50.011,"RA_OF_ASC_NODE":116.6876,"ARG_OF_PERICENTER":178.5616,"MEAN_ANOMALY":181.5278,"EPHEMERIS_TYPE":0,"CLASSIFICATION_TYPE":"U","NORAD_CAT_ID":67438,"ELEMENT_SET_NO":999,"REV_AT_EPOCH":631,"BSTAR":0.00015632,"MEAN_MOTION_DOT":-3.5e-7,"MEAN_MOTION_DDOT":0},{"OBJECT_NAME":"HULIANWANG DIGUI-141","OBJECT_ID":"2026-007E","EPOCH":"2026-03-01T01:27:59.066784","MEAN_MOTION":13.47595026,"ECCENTRICITY":4.436e-5,"INCLINATION":50.004,"RA_OF_ASC_NODE":114.3424,"ARG_OF_PERICENTER":73.1709,"MEAN_ANOMALY":286.922,"EPHEMERIS_TYPE":0,"CLASSIFICATION_TYPE":"U","NORAD_CAT_ID":67439,"ELEMENT_SET_NO":999,"REV_AT_EPOCH":639,"BSTAR":0.00014638007,"MEAN_MOTION_DOT":-4.0e-7,"MEAN_MOTION_DDOT":0},{"OBJECT_NAME":"HULIANWANG DIGUI-142","OBJECT_ID":"2026-007F","EPOCH":"2026-02-28T14:38:33.720000","MEAN_MOTION":13.47919319,"ECCENTRICITY":0.0001971,"INCLINATION":50.0035,"RA_OF_ASC_NODE":115.9923,"ARG_OF_PERICENTER":209.6639,"MEAN_ANOMALY":150.413,"EPHEMERIS_TYPE":0,"CLASSIFICATION_TYPE":"U","NORAD_CAT_ID":67440,"ELEMENT_SET_NO":999,"REV_AT_EPOCH":633,"BSTAR":1.2098e-5,"MEAN_MOTION_DOT":-1.23e-6,"MEAN_MOTION_DDOT":0},{"OBJECT_NAME":"HULIANWANG DIGUI-143","OBJECT_ID":"2026-007G","EPOCH":"2026-02-28T14:29:19.603968","MEAN_MOTION":13.48012339,"ECCENTRICITY":0.0002654,"INCLINATION":50.0035,"RA_OF_ASC_NODE":115.9473,"ARG_OF_PERICENTER":224.4086,"MEAN_ANOMALY":135.6581,"EPHEMERIS_TYPE":0,"CLASSIFICATION_TYPE":"U","NORAD_CAT_ID":67441,"ELEMENT_SET_NO":999,"REV_AT_EPOCH":633,"BSTAR":0.0001399,"MEAN_MOTION_DOT":-4.4e-7,"MEAN_MOTION_DDOT":0},{"OBJECT_NAME":"HULIANWANG DIGUI-144","OBJECT_ID":"2026-007H","EPOCH":"2026-02-28T16:07:17.476320","MEAN_MOTION":13.48237741,"ECCENTRICITY":0.0002073,"INCLINATION":50.0296,"RA_OF_ASC_NODE":115.5876,"ARG_OF_PERICENTER":237.4762,"MEAN_ANOMALY":122.5918,"EPHEMERIS_TYPE":0,"CLASSIFICATION_TYPE":"U","NORAD_CAT_ID":67442,"ELEMENT_SET_NO":999,"REV_AT_EPOCH":634,"BSTAR":0.00012739,"MEAN_MOTION_DOT":-5.2e-7,"MEAN_MOTION_DDOT":0}]
